{"fetched_at":"2026-03-29T02:12:04Z","count":15717,"tles":[{"name":"GPS BIII-9  (PRN 20)","line1":"1 67588U 26017A   26085.93319859  .00000035  00000+0  00000+0 0  9994","line2":"2 67588  55.0345  92.0545 0024556 249.5065 110.2628  2.00553557429968","category":"GPS"}]}