{
  "norad_id": 67588,
  "name": "NAVSTAR 85 (USA 581)",
  "history": [
    {
      "epoch": "2026-03-26T22:23:48.358176Z",
      "apogee_km": 20248.321629347854,
      "perigee_km": 20117.874092698396,
      "latitude_deg": -1.8590879259145851e-06,
      "longitude_deg": -68.27599564169348,
      "height_km": 20206.04963568499,
      "semi_major_axis_km": 26561.234861023124,
      "eccentricity": 0.0024556,
      "inclination_deg": 55.0345,
      "raan_deg": 92.0545,
      "arg_perigee_deg": 249.5065,
      "mean_anomaly_deg": 110.2628,
      "mean_motion_rev_day": 2.00553557
    }
  ]
}